{
  "links" : {
    "next" : "https://api.nasa.gov/neo/rest/v1/neo/browse?page=26&size=20&api_key=jqAGvNAwUIBu4fl9FSOjdm3V4F7hIglRzI6pdX9d",
    "prev" : "https://api.nasa.gov/neo/rest/v1/neo/browse?page=24&size=20&api_key=jqAGvNAwUIBu4fl9FSOjdm3V4F7hIglRzI6pdX9d",
    "self" : "https://api.nasa.gov/neo/rest/v1/neo/browse?page=25&size=20&api_key=jqAGvNAwUIBu4fl9FSOjdm3V4F7hIglRzI6pdX9d"
  },
  "page" : {
    "size" : 20,
    "total_elements" : 20750,
    "total_pages" : 1038,
    "number" : 25
  },
  "near_earth_objects" : [ {
    "links" : {
      "self" : "https://api.nasa.gov/neo/rest/v1/neo/3321569?api_key=jqAGvNAwUIBu4fl9FSOjdm3V4F7hIglRzI6pdX9d"
    },
    "neo_reference_id" : "3321569",
    "name" : "(2006 BX147)",
    "designation" : "2006 BX147",
    "nasa_jpl_url" : "http://ssd.jpl.nasa.gov/sbdb.cgi?sstr=3321569",
    "absolute_magnitude_h" : 21.487,
    "estimated_diameter" : {
      "kilometers" : {
        "estimated_diameter_min" : 0.1340154832,
        "estimated_diameter_max" : 0.2996677305
      },
      "meters" : {
        "estimated_diameter_min" : 134.0154832105,
        "estimated_diameter_max" : 299.6677304961
      },
      "miles" : {
        "estimated_diameter_min" : 0.0832733348,
        "estimated_diameter_max" : 0.1862048374
      },
      "feet" : {
        "estimated_diameter_min" : 439.6833579362,
        "estimated_diameter_max" : 983.1618769208
      }
    },
    "is_potentially_hazardous_asteroid" : true,
    "close_approach_data" : [ {
      "close_approach_date" : "2002-04-02",
      "epoch_date_close_approach" : 1017734400000,
      "relative_velocity" : {
        "kilometers_per_second" : "17.1559957807",
        "kilometers_per_hour" : "61761.5848105078",
        "miles_per_hour" : "38376.2469618402"
      },
      "miss_distance" : {
        "astronomical" : "0.1928672288",
        "lunar" : "75.025352478",
        "kilometers" : "28852528",
        "miles" : "17928130"
      },
      "orbiting_body" : "Earth"
    }, {
      "close_approach_date" : "2003-09-29",
      "epoch_date_close_approach" : 1064818800000,
      "relative_velocity" : {
        "kilometers_per_second" : "28.4629321301",
        "kilometers_per_hour" : "102466.5556685227",
        "miles_per_hour" : "63668.7328819218"
      },
      "miss_distance" : {
        "astronomical" : "0.1202820266",
        "lunar" : "46.7897071838",
        "kilometers" : "17993934",
        "miles" : "11180913"
      },
      "orbiting_body" : "Venus"
    }, {
      "close_approach_date" : "2006-01-30",
      "epoch_date_close_approach" : 1138608000000,
      "relative_velocity" : {
        "kilometers_per_second" : "18.6730823955",
        "kilometers_per_hour" : "67223.0966236412",
        "miles_per_hour" : "41769.8180103953"
      },
      "miss_distance" : {
        "astronomical" : "0.0662978266",
        "lunar" : "25.789855957",
        "kilometers" : "9918014",
        "miles" : "6162768.5"
      },
      "orbiting_body" : "Earth"
    } ],
    "orbital_data" : {
      "orbit_id" : "9",
      "orbit_determination_date" : "2017-04-06 09:09:12",
      "first_observation_date" : "2006-01-27",
      "last_observation_date" : "2006-02-06",
      "data_arc_in_days" : 10,
      "observations_used" : 12,
      "orbit_uncertainty" : "9",
      "minimum_orbit_intersection" : ".0381054",
      "jupiter_tisserand_invariant" : "7.170",
      "epoch_osculation" : "2453766.5",
      "eccentricity" : ".678016710861325",
      "semi_major_axis" : ".7871952710953176",
      "inclination" : "11.57714745225008",
      "ascending_node_longitude" : "141.0364831774175",
      "orbital_period" : "255.1068625704285",
      "perihelion_distance" : ".2534637225816813",
      "perihelion_argument" : "201.6941579241938",
      "aphelion_distance" : "1.320926819608954",
      "perihelion_time" : "2453707.819976089326",
      "mean_anomaly" : "82.80768457183554",
      "mean_motion" : "1.41117332702335",
      "equinox" : "J2000",
      "orbit_class" : {
        "orbit_class_type" : "ATE",
        "orbit_class_range" : "a (semi-major axis) < 1.0 AU; q (perihelion) > 0.983 AU",
        "orbit_class_description" : "Near-Earth asteroid orbits similar to that of 2062 Aten"
      }
    },
    "is_sentry_object" : false
  }, {
    "links" : {
      "self" : "https://api.nasa.gov/neo/rest/v1/neo/3315645?api_key=jqAGvNAwUIBu4fl9FSOjdm3V4F7hIglRzI6pdX9d"
    },
    "neo_reference_id" : "3315645",
    "name" : "(2006 CD)",
    "designation" : "2006 CD",
    "nasa_jpl_url" : "http://ssd.jpl.nasa.gov/sbdb.cgi?sstr=3315645",
    "absolute_magnitude_h" : 20.5,
    "estimated_diameter" : {
      "kilometers" : {
        "estimated_diameter_min" : 0.2111324448,
        "estimated_diameter_max" : 0.4721064988
      },
      "meters" : {
        "estimated_diameter_min" : 211.1324447897,
        "estimated_diameter_max" : 472.1064988055
      },
      "miles" : {
        "estimated_diameter_min" : 0.1311915784,
        "estimated_diameter_max" : 0.2933532873
      },
      "feet" : {
        "estimated_diameter_min" : 692.6917701639,
        "estimated_diameter_max" : 1548.9058855411
      }
    },
    "is_potentially_hazardous_asteroid" : false,
    "close_approach_data" : [ ],
    "orbital_data" : {
      "orbit_id" : "6",
      "orbit_determination_date" : "2017-04-06 09:09:11",
      "first_observation_date" : "2006-02-01",
      "last_observation_date" : "2006-02-03",
      "data_arc_in_days" : 2,
      "observations_used" : 12,
      "orbit_uncertainty" : "9",
      "minimum_orbit_intersection" : ".145613",
      "jupiter_tisserand_invariant" : "3.818",
      "epoch_osculation" : "2453768.5",
      "eccentricity" : ".437110929905101",
      "semi_major_axis" : "1.894731085388208",
      "inclination" : "9.024655854779116",
      "ascending_node_longitude" : "105.2293400102816",
      "orbital_period" : "952.6202241036249",
      "perihelion_distance" : "1.066523418734067",
      "perihelion_argument" : "298.9731254948859",
      "aphelion_distance" : "2.722938752042349",
      "perihelion_time" : "2453693.641473383662",
      "mean_anomaly" : "28.28941576087114",
      "mean_motion" : ".3779050569063288",
      "equinox" : "J2000",
      "orbit_class" : {
        "orbit_class_type" : "AMO",
        "orbit_class_range" : "1.017 AU < q (perihelion) < 1.3 AU",
        "orbit_class_description" : "Near-Earth asteroid orbits similar to that of 1221 Amor"
      }
    },
    "is_sentry_object" : true,
    "sentry_data" : "https://api.nasa.gov/neo/rest/v1/neo/sentry/3315645?api_key=jqAGvNAwUIBu4fl9FSOjdm3V4F7hIglRzI6pdX9d"
  }, {
    "links" : {
      "self" : "https://api.nasa.gov/neo/rest/v1/neo/3315653?api_key=jqAGvNAwUIBu4fl9FSOjdm3V4F7hIglRzI6pdX9d"
    },
    "neo_reference_id" : "3315653",
    "name" : "(2006 CL)",
    "designation" : "2006 CL",
    "nasa_jpl_url" : "http://ssd.jpl.nasa.gov/sbdb.cgi?sstr=3315653",
    "absolute_magnitude_h" : 25.4,
    "estimated_diameter" : {
      "kilometers" : {
        "estimated_diameter_min" : 0.022108281,
        "estimated_diameter_max" : 0.0494356193
      },
      "meters" : {
        "estimated_diameter_min" : 22.1082810359,
        "estimated_diameter_max" : 49.435619262
      },
      "miles" : {
        "estimated_diameter_min" : 0.0137374447,
        "estimated_diameter_max" : 0.0307178602
      },
      "feet" : {
        "estimated_diameter_min" : 72.5337327539,
        "estimated_diameter_max" : 162.1903570994
      }
    },
    "is_potentially_hazardous_asteroid" : false,
    "close_approach_data" : [ {
      "close_approach_date" : "2006-01-27",
      "epoch_date_close_approach" : 1138348800000,
      "relative_velocity" : {
        "kilometers_per_second" : "7.5979136985",
        "kilometers_per_hour" : "27352.4893146903",
        "miles_per_hour" : "16995.7731522308"
      },
      "miss_distance" : {
        "astronomical" : "0.0204516988",
        "lunar" : "7.9557108879",
        "kilometers" : "3059530.5",
        "miles" : "1901104.125"
      },
      "orbiting_body" : "Earth"
    } ],
    "orbital_data" : {
      "orbit_id" : "7",
      "orbit_determination_date" : "2017-04-06 09:09:10",
      "first_observation_date" : "2006-02-02",
      "last_observation_date" : "2006-02-07",
      "data_arc_in_days" : 5,
      "observations_used" : 27,
      "orbit_uncertainty" : "8",
      "minimum_orbit_intersection" : ".0199839",
      "jupiter_tisserand_invariant" : "4.147",
      "epoch_osculation" : "2453770.5",
      "eccentricity" : ".4129641084107958",
      "semi_major_axis" : "1.663661228007028",
      "inclination" : "8.147651059469309",
      "ascending_node_longitude" : "313.033098238498",
      "orbital_period" : "783.7828744517506",
      "perihelion_distance" : ".976628852285496",
      "perihelion_argument" : "151.60241887",
      "aphelion_distance" : "2.35069360372856",
      "perihelion_time" : "2453743.859276728195",
      "mean_anomaly" : "12.23637398885295",
      "mean_motion" : ".4593108777119134",
      "equinox" : "J2000",
      "orbit_class" : {
        "orbit_class_type" : "APO",
        "orbit_class_range" : "a (semi-major axis) > 1.0 AU; q (perihelion) < 1.017 AU",
        "orbit_class_description" : "Near-Earth asteroid orbits which cross the Earth’s orbit similar to that of 1862 Apollo"
      }
    },
    "is_sentry_object" : false
  } ]
}